OBJECT_NAME,OBJECT_ID,EPOCH,MEAN_MOTION,ECCENTRICITY,INCLINATION,RA_OF_ASC_NODE,ARG_OF_PERICENTER,MEAN_ANOMALY,EPHEMERIS_TYPE,CLASSIFICATION_TYPE,NORAD_CAT_ID,ELEMENT_SET_NO,REV_AT_EPOCH,BSTAR,MEAN_MOTION_DOT,MEAN_MOTION_DDOT
TRANSPORTER-17 OBJECT A,2026-156A,2026-07-20T13:22:26.552928,13.99859074,.00118558,98.9945,101.5442,185.1788,174.9255,0,U,69869,999,185,-.63742281E-4,-.137E-5,0
TRANSPORTER-17 OBJECT B,2026-156B,2026-07-20T14:58:40.883520,14.91650383,.00083978,97.7516,101.8545,101.0458,259.1706,0,U,69870,999,198,.13587051E-3,.131E-4,0
TRANSPORTER-17 OBJECT C,2026-156C,2026-07-20T16:34:52.715424,14.91672245,.0007506,97.7552,101.9296,104.4298,255.7755,0,U,69871,999,180,.56732E-4,.515E-5,0
TRANSPORTER-17 OBJECT D,2026-156D,2026-07-20T13:33:55.837440,14.90711157,.00051033,97.7516,101.7798,73.3505,286.8274,0,U,69872,999,197,.54926576E-4,.484E-5,0
TRANSPORTER-17 OBJECT E,2026-156E,2026-07-20T14:59:29.056704,14.91577644,.00073373,97.7553,101.8626,101.4991,258.7052,0,U,69873,999,198,.60829427E-4,.555E-5,0
TRANSPORTER-17 OBJECT F,2026-156F,2026-07-20T13:32:08.519136,14.90858127,.0004705,97.7520,101.7823,86.8196,273.3561,0,U,69874,999,197,.11806E-3,.1108E-4,0
TRANSPORTER-17 OBJECT G,2026-156G,2026-07-20T13:31:30.434880,14.90905847,.00051492,97.7508,101.7809,84.1117,276.0688,0,U,69875,999,197,.83747436E-4,.771E-5,0
TRANSPORTER-17 OBJECT H,2026-156H,2026-07-20T16:31:53.549472,14.91897155,.00085194,97.7339,101.9198,107.8662,252.3487,0,U,69876,999,199,.23549279E-4,.183E-5,0
TRANSPORTER-17 OBJECT J,2026-156J,2026-07-20T13:26:06.293184,14.91339137,.0006594,97.7548,101.7921,96.3992,263.7977,0,U,69877,999,197,.17802E-3,.172E-4,0
TRANSPORTER-17 OBJECT K,2026-156K,2026-07-20T14:57:43.899264,14.91713490,.0008319,97.7512,101.8556,102.2492,257.9659,0,U,69878,999,198,.51617E-4,.464E-5,0
TRANSPORTER-17 OBJECT L,2026-156L,2026-07-20T13:24:01.272384,14.91491171,.0007131,97.7550,101.7945,99.7102,260.4922,0,U,69879,999,197,.79912E-4,.744E-5,0
TRANSPORTER-17 OBJECT M,2026-156M,2026-07-20T13:30:01.924128,14.91022875,.000642,97.7454,101.7739,79.3114,280.8827,0,U,69880,999,197,.10271934E-3,.961E-5,0
TRANSPORTER-17 OBJECT N,2026-156N,2026-07-20T13:30:01.315008,14.91020034,.00058066,97.7484,101.7796,84.4525,275.7356,0,U,69881,999,197,.13511024E-4,.79E-6,0
TRANSPORTER-17 OBJECT P,2026-156P,2026-07-20T13:29:48.717024,14.91050511,.00050602,97.7567,101.7907,99.1869,260.9921,0,U,69882,999,197,.19591473E-3,.1884E-4,0
TRANSPORTER-17 OBJECT Q,2026-156Q,2026-07-20T13:26:22.021440,14.91301726,.00065101,97.7544,101.7912,96.2942,263.9018,0,U,69883,999,197,.38746314E-4,.331E-5,0
TRANSPORTER-17 OBJECT R,2026-156R,2026-07-20T13:19:44.628960,14.91827448,.00085132,97.7513,101.7916,105.2850,254.9311,0,U,69884,999,197,.89085433E-4,.844E-5,0
TRANSPORTER-17 OBJECT S,2026-156S,2026-07-20T13:24:37.334016,14.91439414,.00073906,97.7520,101.7884,95.9126,264.2935,0,U,69885,999,197,.46060265E-4,.405E-5,0
TRANSPORTER-17 OBJECT T,2026-156T,2026-07-20T14:56:15.259776,14.91829461,.00082331,97.7550,101.8644,107.5700,252.6419,0,U,69886,999,197,.54610428E-4,.496E-5,0
TRANSPORTER-17 OBJECT U,2026-156U,2026-07-20T16:33:11.146176,14.91798217,.00080812,97.7548,101.9299,107.2144,252.9960,0,U,69887,999,199,.21590683E-4,.162E-5,0
TRANSPORTER-17 OBJECT V,2026-156V,2026-07-20T13:26:11.169600,14.91323929,.0006419,97.7562,101.7944,97.5018,262.6930,0,U,69888,999,181,.10406602E-3,.982E-5,0
TRANSPORTER-17 OBJECT W,2026-156W,2026-07-20T15:01:23.935872,14.91437813,.00070674,97.7549,101.8596,97.6634,262.5388,0,U,69889,999,198,.1326578E-3,.1271E-4,0
TRANSPORTER-17 OBJECT X,2026-156X,2026-07-20T16:32:11.077440,14.91880571,.0008487,97.7543,101.9298,107.7596,252.4549,0,U,69890,999,199,.5895062E-4,.54E-5,0
TRANSPORTER-17 OBJECT Y,2026-156Y,2026-07-20T15:00:10.895040,14.91522010,.00077445,97.7512,101.8537,97.4351,262.7748,0,U,69891,999,198,.48372809E-4,.429E-5,0
TRANSPORTER-17 OBJECT Z,2026-156Z,2026-07-20T16:31:43.413888,14.91922456,.00087642,97.7531,101.9279,107.0773,253.1406,0,U,69892,999,199,.96746872E-4,.923E-5,0
TRANSPORTER-17 OBJECT AA,2026-156AA,2026-07-20T15:01:58.620288,14.91392082,.00070012,97.7542,101.8578,96.0428,264.1588,0,U,69893,999,198,.1271094E-3,.1214E-4,0
TRANSPORTER-17 OBJECT AB,2026-156AB,2026-07-20T15:00:00.853632,14.91535211,.00072442,97.7551,101.8617,100.6969,259.5065,0,U,69894,999,198,.49698621E-4,.442E-5,0
TRANSPORTER-17 OBJECT AC,2026-156AC,2026-07-20T14:59:49.173216,14.91551146,.00078761,97.7516,101.8545,98.1440,262.0672,0,U,69895,999,198,.5434077E-4,.489E-5,0
TRANSPORTER-17 OBJECT AD,2026-156AD,2026-07-20T16:30:40.737600,14.92001793,.00091015,97.7530,101.9288,108.2328,251.9882,0,U,69896,999,199,.91596481E-4,.873E-5,0
TRANSPORTER-17 OBJECT AE,2026-156AE,2026-07-20T13:33:45.845280,14.90727181,.00036302,97.7570,101.7873,100.5232,259.6396,0,U,69897,999,197,.79780094E-4,.728E-5,0
