TRANSPORTER-17 OBJECT A 
1 69869U 26156A   26201.55725177 -.00000137  00000+0 -63742-4 0  9996
2 69869  98.9945 101.5442 0011855 185.1788 174.9255 13.99859074  1851
TRANSPORTER-17 OBJECT B 
1 69870U 26156B   26201.62408430  .00001310  00000+0  13587-3 0  9999
2 69870  97.7516 101.8545 0008397 101.0458 259.1706 14.91650383  1985
TRANSPORTER-17 OBJECT C 
1 69871U 26156C   26201.69088791  .00000515  00000+0  56732-4 0  9997
2 69871  97.7552 101.9296 0007506 104.4298 255.7755 14.91672245  1808
TRANSPORTER-17 OBJECT D 
1 69872U 26156D   26201.56522960  .00000484  00000+0  54927-4 0  9994
2 69872  97.7516 101.7798 0005103  73.3505 286.8274 14.90711157  1974
TRANSPORTER-17 OBJECT E 
1 69873U 26156E   26201.62464186  .00000555  00000+0  60829-4 0  9994
2 69873  97.7553 101.8626 0007337 101.4991 258.7052 14.91577644  1985
TRANSPORTER-17 OBJECT F 
1 69874U 26156F   26201.56398749  .00001108  00000+0  11806-3 0  9994
2 69874  97.7520 101.7823 0004705  86.8196 273.3561 14.90858127  1971
TRANSPORTER-17 OBJECT G 
1 69875U 26156G   26201.56354670  .00000771  00000+0  83747-4 0  9999
2 69875  97.7508 101.7809 0005149  84.1117 276.0688 14.90905847  1971
TRANSPORTER-17 OBJECT H 
1 69876U 26156H   26201.68881423  .00000183  00000+0  23549-4 0  9995
2 69876  97.7339 101.9198 0008519 107.8662 252.3487 14.91897155  1998
TRANSPORTER-17 OBJECT J 
1 69877U 26156J   26201.55979506  .00001720  00000+0  17802-3 0  9994
2 69877  97.7548 101.7921 0006594  96.3992 263.7977 14.91339137  1971
TRANSPORTER-17 OBJECT K 
1 69878U 26156K   26201.62342476  .00000464  00000+0  51617-4 0  9990
2 69878  97.7512 101.8556 0008319 102.2492 257.9659 14.91713490  1988
TRANSPORTER-17 OBJECT L 
1 69879U 26156L   26201.55834806  .00000744  00000+0  79912-4 0  9995
2 69879  97.7550 101.7945 0007131  99.7102 260.4922 14.91491171  1971
TRANSPORTER-17 OBJECT M 
1 69880U 26156M   26201.56252227  .00000961  00000+0  10272-3 0  9993
2 69880  97.7454 101.7739 0006420  79.3114 280.8827 14.91022875  1975
TRANSPORTER-17 OBJECT N 
1 69881U 26156N   26201.56251522  .00000079  00000+0  13511-4 0  9991
2 69881  97.7484 101.7796 0005806  84.4525 275.7356 14.91020034  1977
TRANSPORTER-17 OBJECT P 
1 69882U 26156P   26201.56236941  .00001884  00000+0  19591-3 0  9998
2 69882  97.7567 101.7907 0005060  99.1869 260.9921 14.91050511  1977
TRANSPORTER-17 OBJECT Q 
1 69883U 26156Q   26201.55997710  .00000331  00000+0  38746-4 0  9996
2 69883  97.7544 101.7912 0006510  96.2942 263.9018 14.91301726  1977
TRANSPORTER-17 OBJECT R 
1 69884U 26156R   26201.55537765  .00000844  00000+0  89085-4 0  9998
2 69884  97.7513 101.7916 0008513 105.2850 254.9311 14.91827448  1972
TRANSPORTER-17 OBJECT S 
1 69885U 26156S   26201.55876544  .00000405  00000+0  46060-4 0  9999
2 69885  97.7520 101.7884 0007390  95.9126 264.2935 14.91439414  1976
TRANSPORTER-17 OBJECT T 
1 69886U 26156T   26201.62239884  .00000496  00000+0  54610-4 0  9998
2 69886  97.7550 101.8644 0008233 107.5700 252.6419 14.91829461  1973
TRANSPORTER-17 OBJECT U 
1 69887U 26156U   26201.68971234  .00000162  00000+0  21591-4 0  9999
2 69887  97.7548 101.9299 0008081 107.2144 252.9960 14.91798217  1998
TRANSPORTER-17 OBJECT V 
1 69888U 26156V   26201.55985150  .00000982  00000+0  10407-3 0  9991
2 69888  97.7562 101.7944 0006419  97.5018 262.6930 14.91323929  1814
TRANSPORTER-17 OBJECT W 
1 69889U 26156W   26201.62597148  .00001271  00000+0  13266-3 0  9994
2 69889  97.7549 101.8596 0007067  97.6634 262.5388 14.91437813  1981
TRANSPORTER-17 OBJECT X 
1 69890U 26156X   26201.68901710  .00000540  00000+0  58951-4 0  9995
2 69890  97.7543 101.9298 0008487 107.7596 252.4549 14.91880571  1995
TRANSPORTER-17 OBJECT Y 
1 69891U 26156Y   26201.62512610  .00000429  00000+0  48373-4 0  9990
2 69891  97.7512 101.8537 0007744  97.4351 262.7748 14.91522010  1981
TRANSPORTER-17 OBJECT Z 
1 69892U 26156Z   26201.68869692  .00000923  00000+0  96747-4 0  9999
2 69892  97.7531 101.9279 0008764 107.0773 253.1406 14.91922456  1990
TRANSPORTER-17 OBJECT AA
1 69893U 26156AA  26201.62637292  .00001214  00000+0  12711-3 0  9995
2 69893  97.7542 101.8578 0007001  96.0428 264.1588 14.91392082  1989
TRANSPORTER-17 OBJECT AB
1 69894U 26156AB  26201.62500988  .00000442  00000+0  49699-4 0  9995
2 69894  97.7551 101.8617 0007244 100.6969 259.5065 14.91535211  1986
TRANSPORTER-17 OBJECT AC
1 69895U 26156AC  26201.62487469  .00000489  00000+0  54341-4 0  9995
2 69895  97.7516 101.8545 0007876  98.1440 262.0672 14.91551146  1982
TRANSPORTER-17 OBJECT AD
1 69896U 26156AD  26201.68797150  .00000873  00000+0  91596-4 0  9993
2 69896  97.7530 101.9288 0009101 108.2328 251.9882 14.92001793  1995
TRANSPORTER-17 OBJECT AE
1 69897U 26156AE  26201.56511395  .00000728  00000+0  79780-4 0  9996
2 69897  97.7570 101.7873 0003630 100.5232 259.6396 14.90727181  1975
